ORBCOMM FM37            
1 33064U 08031E   24157.95118721  .00003001  00000+0  45425-3 0  9997
2 33064  48.4405 328.0954 0006355 209.7422 317.2705 14.76607563858381
ORBCOMM FM40            
1 33065U 08031F   24157.85323681  .00003938  00000+0  56861-3 0  9995
2 33065  48.4425 317.6741 0007771 217.7118 295.0691 14.77965947858411
ORBCOMM FM107           
1 40087U 14040B   24157.67409024  .00001412  00000+0  35026-3 0  9995
2 40087  47.0067 353.5937 0001395 324.5487  35.5305 14.56717010526210
ORBCOMM FM106           
1 40088U 14040C   24157.82031711  .00001381  00000+0  27529-3 0  9991
2 40088  47.0596 204.0890 0016789 120.6731 239.5816 14.67152532528169
ORBCOMM FM104           
1 40090U 14040E   24157.87791807  .00001033  00000+0  27475-3 0  9992
2 40090  47.0067  21.8410 0017472 285.5413  74.3542 14.55205505525788
